<?xml version="1.0" encoding="UTF-8"?>
<gpx creator="--No GPS SELECTED--" xmlns:xsi="http://www.w3.org/2001/XMLSchema-instance" xsi:schemaLocation="http://www.topografix.com/GPX/1/1 http://www.topografix.com/GPX/1/1/gpx.xsd http://www.garmin.com/xmlschemas/GpxExtensions/v3 http://www.garmin.com/xmlschemas/GpxExtensionsv3.xsd http://www.garmin.com/xmlschemas/TrackPointExtension/v1 http://www.garmin.com/xmlschemas/TrackPointExtensionv1.xsd" version="1.1" xmlns="http://www.topografix.com/GPX/1/1" xmlns:gpxtpx="http://www.garmin.com/xmlschemas/TrackPointExtension/v1" xmlns:gpxx="http://www.garmin.com/xmlschemas/GpxExtensions/v3">
  <metadata>
    <link href="https://gotoes.org/strava/Combine_GPX_TCX_FIT_Files.php">
      <text>GOTOES STRAVA TOOLS</text>
    </link>
    <desc>Created with GOTOES STRAVA TOOLS Version 30.6</desc>
    <time>2025-04-17T06:49:05Z</time>
  </metadata>
  <trk>
    <name>GOTOES Export</name>
    <type>Biking</type>
    <trkseg>
      <trkpt lon="10.947206" lat="44.958648">
        <time>2025-04-17T06:49:05Z</time>
      </trkpt>
      <trkpt lon="10.947332" lat="44.958576">
        <time>2025-04-17T06:49:10Z</time>
      </trkpt>
      <trkpt lon="10.947376" lat="44.958503">
        <time>2025-04-17T06:49:14Z</time>
      </trkpt>
      <trkpt lon="10.947518" lat="44.958554">
        <time>2025-04-17T06:49:19Z</time>
      </trkpt>
      <trkpt lon="10.947588" lat="44.958484">
        <time>2025-04-17T06:49:23Z</time>
      </trkpt>
      <trkpt lon="10.947768" lat="44.958319">
        <time>2025-04-17T06:49:32Z</time>
      </trkpt>
      <trkpt lon="10.94801" lat="44.958115">
        <time>2025-04-17T06:49:43Z</time>
      </trkpt>
      <trkpt lon="10.948076" lat="44.958068">
        <time>2025-04-17T06:49:46Z</time>
      </trkpt>
      <trkpt lon="10.948216" lat="44.958013">
        <time>2025-04-17T06:49:51Z</time>
      </trkpt>
      <trkpt lon="10.948328" lat="44.957989">
        <time>2025-04-17T06:49:55Z</time>
      </trkpt>
      <trkpt lon="10.948662" lat="44.957871">
        <time>2025-04-17T06:50:06Z</time>
      </trkpt>
      <trkpt lon="10.9487" lat="44.957835">
        <time>2025-04-17T06:50:08Z</time>
      </trkpt>
      <trkpt lon="10.948724" lat="44.957802">
        <time>2025-04-17T06:50:10Z</time>
      </trkpt>
      <trkpt lon="10.948738" lat="44.957749">
        <time>2025-04-17T06:50:13Z</time>
      </trkpt>
      <trkpt lon="10.94869" lat="44.957605">
        <time>2025-04-17T06:50:19Z</time>
      </trkpt>
      <trkpt lon="10.948678" lat="44.957574">
        <time>2025-04-17T06:50:21Z</time>
      </trkpt>
      <trkpt lon="10.948588" lat="44.957489">
        <time>2025-04-17T06:50:26Z</time>
      </trkpt>
      <trkpt lon="10.948558" lat="44.957469">
        <time>2025-04-17T06:50:28Z</time>
      </trkpt>
      <trkpt lon="10.948522" lat="44.957406">
        <time>2025-04-17T06:50:31Z</time>
      </trkpt>
      <trkpt lon="10.948516" lat="44.957218">
        <time>2025-04-17T06:50:39Z</time>
      </trkpt>
      <trkpt lon="10.948536" lat="44.957108">
        <time>2025-04-17T06:50:44Z</time>
      </trkpt>
      <trkpt lon="10.948578" lat="44.956974">
        <time>2025-04-17T06:50:50Z</time>
      </trkpt>
      <trkpt lon="10.948654" lat="44.956742">
        <time>2025-04-17T06:51:00Z</time>
      </trkpt>
      <trkpt lon="10.948774" lat="44.956292">
        <time>2025-04-17T06:51:19Z</time>
      </trkpt>
      <trkpt lon="10.948846" lat="44.955883">
        <time>2025-04-17T06:51:36Z</time>
      </trkpt>
      <trkpt lon="10.948854" lat="44.955742">
        <time>2025-04-17T06:51:42Z</time>
      </trkpt>
      <trkpt lon="10.948858" lat="44.955569">
        <time>2025-04-17T06:51:49Z</time>
      </trkpt>
      <trkpt lon="10.948828" lat="44.954849">
        <time>2025-04-17T06:52:18Z</time>
      </trkpt>
      <trkpt lon="10.948806" lat="44.954288">
        <time>2025-04-17T06:52:41Z</time>
      </trkpt>
      <trkpt lon="10.948762" lat="44.953846">
        <time>2025-04-17T06:52:59Z</time>
      </trkpt>
      <trkpt lon="10.94871" lat="44.953675">
        <time>2025-04-17T06:53:07Z</time>
      </trkpt>
      <trkpt lon="10.948628" lat="44.953474">
        <time>2025-04-17T06:53:16Z</time>
      </trkpt>
      <trkpt lon="10.948372" lat="44.953061">
        <time>2025-04-17T06:53:35Z</time>
      </trkpt>
      <trkpt lon="10.948018" lat="44.952459">
        <time>2025-04-17T06:54:02Z</time>
      </trkpt>
      <trkpt lon="10.947896" lat="44.952218">
        <time>2025-04-17T06:54:13Z</time>
      </trkpt>
      <trkpt lon="10.947836" lat="44.951983">
        <time>2025-04-17T06:54:23Z</time>
      </trkpt>
      <trkpt lon="10.947808" lat="44.951634">
        <time>2025-04-17T06:54:37Z</time>
      </trkpt>
      <trkpt lon="10.947804" lat="44.951272">
        <time>2025-04-17T06:54:52Z</time>
      </trkpt>
      <trkpt lon="10.947812" lat="44.951031">
        <time>2025-04-17T06:55:02Z</time>
      </trkpt>
      <trkpt lon="10.947874" lat="44.950712">
        <time>2025-04-17T06:55:15Z</time>
      </trkpt>
      <trkpt lon="10.947882" lat="44.950696">
        <time>2025-04-17T06:55:16Z</time>
      </trkpt>
      <trkpt lon="10.947914" lat="44.950552">
        <time>2025-04-17T06:55:22Z</time>
      </trkpt>
      <trkpt lon="10.948098" lat="44.950069">
        <time>2025-04-17T06:55:43Z</time>
      </trkpt>
      <trkpt lon="10.948098" lat="44.950044">
        <time>2025-04-17T06:55:45Z</time>
      </trkpt>
      <trkpt lon="10.948168" lat="44.949804">
        <time>2025-04-17T06:55:55Z</time>
      </trkpt>
      <trkpt lon="10.948218" lat="44.949534">
        <time>2025-04-17T06:56:06Z</time>
      </trkpt>
      <trkpt lon="10.948226" lat="44.949373">
        <time>2025-04-17T06:56:13Z</time>
      </trkpt>
      <trkpt lon="10.948204" lat="44.949212">
        <time>2025-04-17T06:56:20Z</time>
      </trkpt>
      <trkpt lon="10.948158" lat="44.949004">
        <time>2025-04-17T06:56:29Z</time>
      </trkpt>
      <trkpt lon="10.948056" lat="44.948738">
        <time>2025-04-17T06:56:41Z</time>
      </trkpt>
      <trkpt lon="10.948012" lat="44.948616">
        <time>2025-04-17T06:56:47Z</time>
      </trkpt>
      <trkpt lon="10.947982" lat="44.948431">
        <time>2025-04-17T06:56:55Z</time>
      </trkpt>
      <trkpt lon="10.947972" lat="44.948306">
        <time>2025-04-17T06:57:01Z</time>
      </trkpt>
      <trkpt lon="10.947984" lat="44.948202">
        <time>2025-04-17T06:57:06Z</time>
      </trkpt>
      <trkpt lon="10.948054" lat="44.947847">
        <time>2025-04-17T06:57:21Z</time>
      </trkpt>
      <trkpt lon="10.948066" lat="44.947818">
        <time>2025-04-17T06:57:23Z</time>
      </trkpt>
      <trkpt lon="10.948122" lat="44.947606">
        <time>2025-04-17T06:57:32Z</time>
      </trkpt>
      <trkpt lon="10.948182" lat="44.947451">
        <time>2025-04-17T06:57:39Z</time>
      </trkpt>
      <trkpt lon="10.948292" lat="44.947231">
        <time>2025-04-17T06:57:49Z</time>
      </trkpt>
      <trkpt lon="10.948392" lat="44.946991">
        <time>2025-04-17T06:58:00Z</time>
      </trkpt>
      <trkpt lon="10.948432" lat="44.946856">
        <time>2025-04-17T06:58:06Z</time>
      </trkpt>
      <trkpt lon="10.94844" lat="44.946695">
        <time>2025-04-17T06:58:13Z</time>
      </trkpt>
      <trkpt lon="10.948412" lat="44.946531">
        <time>2025-04-17T06:58:20Z</time>
      </trkpt>
      <trkpt lon="10.94831" lat="44.946255">
        <time>2025-04-17T06:58:32Z</time>
      </trkpt>
      <trkpt lon="10.948232" lat="44.946101">
        <time>2025-04-17T06:58:39Z</time>
      </trkpt>
      <trkpt lon="10.948194" lat="44.946042">
        <time>2025-04-17T06:58:42Z</time>
      </trkpt>
      <trkpt lon="10.948136" lat="44.945953">
        <time>2025-04-17T06:58:46Z</time>
      </trkpt>
      <trkpt lon="10.94802" lat="44.945825">
        <time>2025-04-17T06:58:53Z</time>
      </trkpt>
      <trkpt lon="10.947854" lat="44.945672">
        <time>2025-04-17T06:59:01Z</time>
      </trkpt>
      <trkpt lon="10.94764" lat="44.945515">
        <time>2025-04-17T06:59:10Z</time>
      </trkpt>
      <trkpt lon="10.94752" lat="44.945415">
        <time>2025-04-17T06:59:16Z</time>
      </trkpt>
      <trkpt lon="10.947272" lat="44.945206">
        <time>2025-04-17T06:59:27Z</time>
      </trkpt>
      <trkpt lon="10.947098" lat="44.945084">
        <time>2025-04-17T06:59:34Z</time>
      </trkpt>
      <trkpt lon="10.946812" lat="44.944921">
        <time>2025-04-17T06:59:45Z</time>
      </trkpt>
      <trkpt lon="10.946498" lat="44.944754">
        <time>2025-04-17T06:59:57Z</time>
      </trkpt>
      <trkpt lon="10.946382" lat="44.944681">
        <time>2025-04-17T07:00:02Z</time>
      </trkpt>
      <trkpt lon="10.946106" lat="44.944493">
        <time>2025-04-17T07:00:13Z</time>
      </trkpt>
      <trkpt lon="10.945506" lat="44.944058">
        <time>2025-04-17T07:00:38Z</time>
      </trkpt>
      <trkpt lon="10.945318" lat="44.943944">
        <time>2025-04-17T07:00:46Z</time>
      </trkpt>
      <trkpt lon="10.945276" lat="44.943928">
        <time>2025-04-17T07:00:48Z</time>
      </trkpt>
      <trkpt lon="10.945102" lat="44.943846">
        <time>2025-04-17T07:00:54Z</time>
      </trkpt>
      <trkpt lon="10.944414" lat="44.943502">
        <time>2025-04-17T07:01:18Z</time>
      </trkpt>
      <trkpt lon="10.944252" lat="44.943431">
        <time>2025-04-17T07:01:24Z</time>
      </trkpt>
      <trkpt lon="10.944138" lat="44.943359">
        <time>2025-04-17T07:01:29Z</time>
      </trkpt>
      <trkpt lon="10.943976" lat="44.943208">
        <time>2025-04-17T07:01:37Z</time>
      </trkpt>
      <trkpt lon="10.943842" lat="44.943071">
        <time>2025-04-17T07:01:44Z</time>
      </trkpt>
      <trkpt lon="10.943694" lat="44.942902">
        <time>2025-04-17T07:01:52Z</time>
      </trkpt>
      <trkpt lon="10.94359" lat="44.942775">
        <time>2025-04-17T07:01:58Z</time>
      </trkpt>
      <trkpt lon="10.943518" lat="44.942634">
        <time>2025-04-17T07:02:05Z</time>
      </trkpt>
      <trkpt lon="10.943464" lat="44.942527">
        <time>2025-04-17T07:02:10Z</time>
      </trkpt>
      <trkpt lon="10.943432" lat="44.942456">
        <time>2025-04-17T07:02:13Z</time>
      </trkpt>
      <trkpt lon="10.943374" lat="44.942307">
        <time>2025-04-17T07:02:20Z</time>
      </trkpt>
      <trkpt lon="10.943242" lat="44.942076">
        <time>2025-04-17T07:02:30Z</time>
      </trkpt>
      <trkpt lon="10.943094" lat="44.941932">
        <time>2025-04-17T07:02:38Z</time>
      </trkpt>
      <trkpt lon="10.943004" lat="44.941867">
        <time>2025-04-17T07:02:42Z</time>
      </trkpt>
      <trkpt lon="10.942958" lat="44.941809">
        <time>2025-04-17T07:02:45Z</time>
      </trkpt>
      <trkpt lon="10.942956" lat="44.941753">
        <time>2025-04-17T07:02:48Z</time>
      </trkpt>
      <trkpt lon="10.942962" lat="44.941736">
        <time>2025-04-17T07:02:49Z</time>
      </trkpt>
      <trkpt lon="10.943002" lat="44.941676">
        <time>2025-04-17T07:02:52Z</time>
      </trkpt>
      <trkpt lon="10.944054" lat="44.940737">
        <time>2025-04-17T07:03:40Z</time>
      </trkpt>
      <trkpt lon="10.94403" lat="44.940725">
        <time>2025-04-17T07:03:41Z</time>
      </trkpt>
      <trkpt lon="10.943972" lat="44.940686">
        <time>2025-04-17T07:03:44Z</time>
      </trkpt>
      <trkpt lon="10.94368" lat="44.940525">
        <time>2025-04-17T07:03:55Z</time>
      </trkpt>
      <trkpt lon="10.943588" lat="44.940469">
        <time>2025-04-17T07:03:59Z</time>
      </trkpt>
      <trkpt lon="10.942292" lat="44.939736">
        <time>2025-04-17T07:04:47Z</time>
      </trkpt>
      <trkpt lon="10.94191" lat="44.939485">
        <time>2025-04-17T07:05:02Z</time>
      </trkpt>
      <trkpt lon="10.940756" lat="44.938683">
        <time>2025-04-17T07:05:48Z</time>
      </trkpt>
      <trkpt lon="10.940252" lat="44.938341">
        <time>2025-04-17T07:06:08Z</time>
      </trkpt>
      <trkpt lon="10.939326" lat="44.937698">
        <time>2025-04-17T07:06:45Z</time>
      </trkpt>
      <trkpt lon="10.93922" lat="44.937635">
        <time>2025-04-17T07:06:49Z</time>
      </trkpt>
      <trkpt lon="10.938294" lat="44.937012">
        <time>2025-04-17T07:07:26Z</time>
      </trkpt>
      <trkpt lon="10.938218" lat="44.936964">
        <time>2025-04-17T07:07:29Z</time>
      </trkpt>
      <trkpt lon="10.938082" lat="44.936891">
        <time>2025-04-17T07:07:34Z</time>
      </trkpt>
      <trkpt lon="10.937944" lat="44.936862">
        <time>2025-04-17T07:07:39Z</time>
      </trkpt>
      <trkpt lon="10.937914" lat="44.936862">
        <time>2025-04-17T07:07:40Z</time>
      </trkpt>
      <trkpt lon="10.937894" lat="44.936862">
        <time>2025-04-17T07:07:41Z</time>
      </trkpt>
      <trkpt lon="10.937784" lat="44.936857">
        <time>2025-04-17T07:07:45Z</time>
      </trkpt>
      <trkpt lon="10.935972" lat="44.936906">
        <time>2025-04-17T07:08:37Z</time>
      </trkpt>
      <trkpt lon="10.935782" lat="44.936921">
        <time>2025-04-17T07:08:43Z</time>
      </trkpt>
      <trkpt lon="10.935286" lat="44.936993">
        <time>2025-04-17T07:08:58Z</time>
      </trkpt>
      <trkpt lon="10.935124" lat="44.937002">
        <time>2025-04-17T07:09:03Z</time>
      </trkpt>
      <trkpt lon="10.934982" lat="44.936996">
        <time>2025-04-17T07:09:08Z</time>
      </trkpt>
      <trkpt lon="10.934884" lat="44.936977">
        <time>2025-04-17T07:09:11Z</time>
      </trkpt>
      <trkpt lon="10.934788" lat="44.936959">
        <time>2025-04-17T07:09:14Z</time>
      </trkpt>
      <trkpt lon="10.934602" lat="44.936906">
        <time>2025-04-17T07:09:20Z</time>
      </trkpt>
      <trkpt lon="10.934374" lat="44.936817">
        <time>2025-04-17T07:09:28Z</time>
      </trkpt>
      <trkpt lon="10.932682" lat="44.936106">
        <time>2025-04-17T07:10:24Z</time>
      </trkpt>
      <trkpt lon="10.931716" lat="44.935698">
        <time>2025-04-17T07:10:56Z</time>
      </trkpt>
      <trkpt lon="10.930738" lat="44.935269">
        <time>2025-04-17T07:11:29Z</time>
      </trkpt>
      <trkpt lon="10.930758" lat="44.935254">
        <time>2025-04-17T07:11:30Z</time>
      </trkpt>
      <trkpt lon="10.930738" lat="44.935269">
        <time>2025-04-17T07:11:31Z</time>
      </trkpt>
      <trkpt lon="10.930274" lat="44.935067">
        <time>2025-04-17T07:11:47Z</time>
      </trkpt>
      <trkpt lon="10.929814" lat="44.934862">
        <time>2025-04-17T07:12:03Z</time>
      </trkpt>
      <trkpt lon="10.929704" lat="44.934812">
        <time>2025-04-17T07:12:07Z</time>
      </trkpt>
      <trkpt lon="10.928372" lat="44.934206">
        <time>2025-04-17T07:12:52Z</time>
      </trkpt>
      <trkpt lon="10.927418" lat="44.933784">
        <time>2025-04-17T07:13:24Z</time>
      </trkpt>
      <trkpt lon="10.927226" lat="44.933708">
        <time>2025-04-17T07:13:31Z</time>
      </trkpt>
      <trkpt lon="10.926926" lat="44.933583">
        <time>2025-04-17T07:13:41Z</time>
      </trkpt>
      <trkpt lon="10.926578" lat="44.933454">
        <time>2025-04-17T07:13:53Z</time>
      </trkpt>
      <trkpt lon="10.926224" lat="44.933342">
        <time>2025-04-17T07:14:04Z</time>
      </trkpt>
      <trkpt lon="10.926042" lat="44.933281">
        <time>2025-04-17T07:14:10Z</time>
      </trkpt>
      <trkpt lon="10.925618" lat="44.933159">
        <time>2025-04-17T07:14:23Z</time>
      </trkpt>
      <trkpt lon="10.924472" lat="44.932856">
        <time>2025-04-17T07:14:58Z</time>
      </trkpt>
      <trkpt lon="10.924208" lat="44.932784">
        <time>2025-04-17T07:15:07Z</time>
      </trkpt>
      <trkpt lon="10.923996" lat="44.932708">
        <time>2025-04-17T07:15:14Z</time>
      </trkpt>
      <trkpt lon="10.923954" lat="44.932692">
        <time>2025-04-17T07:15:16Z</time>
      </trkpt>
      <trkpt lon="10.923868" lat="44.932659">
        <time>2025-04-17T07:15:19Z</time>
      </trkpt>
      <trkpt lon="10.923344" lat="44.932387">
        <time>2025-04-17T07:15:38Z</time>
      </trkpt>
      <trkpt lon="10.921692" lat="44.931561">
        <time>2025-04-17T07:16:36Z</time>
      </trkpt>
      <trkpt lon="10.921274" lat="44.931367">
        <time>2025-04-17T07:16:51Z</time>
      </trkpt>
      <trkpt lon="10.921048" lat="44.931284">
        <time>2025-04-17T07:16:59Z</time>
      </trkpt>
      <trkpt lon="10.920864" lat="44.931237">
        <time>2025-04-17T07:17:05Z</time>
      </trkpt>
      <trkpt lon="10.92069" lat="44.931215">
        <time>2025-04-17T07:17:11Z</time>
      </trkpt>
      <trkpt lon="10.920446" lat="44.931208">
        <time>2025-04-17T07:17:18Z</time>
      </trkpt>
      <trkpt lon="10.920428" lat="44.931199">
        <time>2025-04-17T07:17:19Z</time>
      </trkpt>
      <trkpt lon="10.918376" lat="44.931088">
        <time>2025-04-17T07:18:18Z</time>
      </trkpt>
      <trkpt lon="10.918192" lat="44.931066">
        <time>2025-04-17T07:18:24Z</time>
      </trkpt>
      <trkpt lon="10.91809" lat="44.931035">
        <time>2025-04-17T07:18:28Z</time>
      </trkpt>
      <trkpt lon="10.918078" lat="44.931039">
        <time>2025-04-17T07:18:29Z</time>
      </trkpt>
      <trkpt lon="10.91794" lat="44.930945">
        <time>2025-04-17T07:18:35Z</time>
      </trkpt>
      <trkpt lon="10.917862" lat="44.930866">
        <time>2025-04-17T07:18:39Z</time>
      </trkpt>
      <trkpt lon="10.917658" lat="44.930574">
        <time>2025-04-17T07:18:53Z</time>
      </trkpt>
      <trkpt lon="10.917386" lat="44.930278">
        <time>2025-04-17T07:19:08Z</time>
      </trkpt>
      <trkpt lon="10.917244" lat="44.930112">
        <time>2025-04-17T07:19:16Z</time>
      </trkpt>
      <trkpt lon="10.917088" lat="44.929979">
        <time>2025-04-17T07:19:23Z</time>
      </trkpt>
      <trkpt lon="10.917016" lat="44.929923">
        <time>2025-04-17T07:19:27Z</time>
      </trkpt>
      <trkpt lon="10.916644" lat="44.929652">
        <time>2025-04-17T07:19:43Z</time>
      </trkpt>
      <trkpt lon="10.916288" lat="44.929439">
        <time>2025-04-17T07:19:57Z</time>
      </trkpt>
      <trkpt lon="10.916138" lat="44.929354">
        <time>2025-04-17T07:20:03Z</time>
      </trkpt>
      <trkpt lon="10.91581" lat="44.929215">
        <time>2025-04-17T07:20:14Z</time>
      </trkpt>
      <trkpt lon="10.915548" lat="44.929189">
        <time>2025-04-17T07:20:22Z</time>
      </trkpt>
      <trkpt lon="10.915556" lat="44.929173">
        <time>2025-04-17T07:20:23Z</time>
      </trkpt>
      <trkpt lon="10.915548" lat="44.929189">
        <time>2025-04-17T07:20:24Z</time>
      </trkpt>
      <trkpt lon="10.915498" lat="44.929264">
        <time>2025-04-17T07:20:28Z</time>
      </trkpt>
      <trkpt lon="10.915306" lat="44.929553">
        <time>2025-04-17T07:20:41Z</time>
      </trkpt>
      <trkpt lon="10.915226" lat="44.929653">
        <time>2025-04-17T07:20:46Z</time>
      </trkpt>
      <trkpt lon="10.915186" lat="44.929638">
        <time>2025-04-17T07:20:48Z</time>
      </trkpt>
      <trkpt lon="10.913792" lat="44.929136">
        <time>2025-04-17T07:21:33Z</time>
      </trkpt>
      <trkpt lon="10.91376" lat="44.929125">
        <time>2025-04-17T07:21:35Z</time>
      </trkpt>
      <trkpt lon="10.913536" lat="44.929433">
        <time>2025-04-17T07:21:49Z</time>
      </trkpt>
      <trkpt lon="10.913526" lat="44.929458">
        <time>2025-04-17T07:21:51Z</time>
      </trkpt>
      <trkpt lon="10.913668" lat="44.929524">
        <time>2025-04-17T07:21:56Z</time>
      </trkpt>
      <trkpt lon="10.913696" lat="44.929543">
        <time>2025-04-17T07:21:58Z</time>
      </trkpt>
      <trkpt lon="10.913772" lat="44.929716">
        <time>2025-04-17T07:22:06Z</time>
      </trkpt>
      <trkpt lon="10.913876" lat="44.929913">
        <time>2025-04-17T07:22:15Z</time>
      </trkpt>
      <trkpt lon="10.913922" lat="44.930026">
        <time>2025-04-17T07:22:20Z</time>
      </trkpt>
      <trkpt lon="10.913946" lat="44.930083">
        <time>2025-04-17T07:22:23Z</time>
      </trkpt>
      <trkpt lon="10.913946" lat="44.930108">
        <time>2025-04-17T07:22:25Z</time>
      </trkpt>
      <trkpt lon="10.913922" lat="44.930136">
        <time>2025-04-17T07:22:27Z</time>
      </trkpt>
      <trkpt lon="10.913926" lat="44.930138">
        <time>2025-04-17T07:22:28Z</time>
      </trkpt>
      <trkpt lon="10.913902" lat="44.930161">
        <time>2025-04-17T07:22:30Z</time>
      </trkpt>
      <trkpt lon="10.91349" lat="44.930415">
        <time>2025-04-17T07:22:46Z</time>
      </trkpt>
      <trkpt lon="10.913376" lat="44.930478">
        <time>2025-04-17T07:22:51Z</time>
      </trkpt>
      <trkpt lon="10.913268" lat="44.930539">
        <time>2025-04-17T07:22:55Z</time>
      </trkpt>
      <trkpt lon="10.91284" lat="44.930765">
        <time>2025-04-17T07:23:11Z</time>
      </trkpt>
      <trkpt lon="10.912776" lat="44.930803">
        <time>2025-04-17T07:23:14Z</time>
      </trkpt>
      <trkpt lon="10.912634" lat="44.930862">
        <time>2025-04-17T07:23:19Z</time>
      </trkpt>
      <trkpt lon="10.912644" lat="44.930877">
        <time>2025-04-17T07:23:20Z</time>
      </trkpt>
      <trkpt lon="10.912676" lat="44.930923">
        <time>2025-04-17T07:23:23Z</time>
      </trkpt>
      <trkpt lon="10.912758" lat="44.931059">
        <time>2025-04-17T07:23:29Z</time>
      </trkpt>
      <trkpt lon="10.913168" lat="44.931784">
        <time>2025-04-17T07:24:01Z</time>
      </trkpt>
      <trkpt lon="10.913202" lat="44.931831">
        <time>2025-04-17T07:24:04Z</time>
      </trkpt>
      <trkpt lon="10.913214" lat="44.931832">
        <time>2025-04-17T07:24:05Z</time>
      </trkpt>
      <trkpt lon="10.913316" lat="44.931883">
        <time>2025-04-17T07:24:09Z</time>
      </trkpt>
      <trkpt lon="10.913354" lat="44.931942">
        <time>2025-04-17T07:24:12Z</time>
      </trkpt>
      <trkpt lon="10.913368" lat="44.931989">
        <time>2025-04-17T07:24:14Z</time>
      </trkpt>
      <trkpt lon="10.913378" lat="44.932019">
        <time>2025-04-17T07:24:16Z</time>
      </trkpt>
      <trkpt lon="10.913356" lat="44.932068">
        <time>2025-04-17T07:24:19Z</time>
      </trkpt>
      <trkpt lon="10.913322" lat="44.932126">
        <time>2025-04-17T07:24:22Z</time>
      </trkpt>
      <trkpt lon="10.913314" lat="44.932142">
        <time>2025-04-17T07:24:23Z</time>
      </trkpt>
      <trkpt lon="10.913328" lat="44.932169">
        <time>2025-04-17T07:24:25Z</time>
      </trkpt>
      <trkpt lon="10.913332" lat="44.932186">
        <time>2025-04-17T07:24:26Z</time>
      </trkpt>
      <trkpt lon="10.913384" lat="44.932207">
        <time>2025-04-17T07:24:28Z</time>
      </trkpt>
      <trkpt lon="10.913362" lat="44.932211">
        <time>2025-04-17T07:24:29Z</time>
      </trkpt>
      <trkpt lon="10.913302" lat="44.932221">
        <time>2025-04-17T07:24:31Z</time>
      </trkpt>
      <trkpt lon="10.913268" lat="44.932234">
        <time>2025-04-17T07:24:33Z</time>
      </trkpt>
      <trkpt lon="10.913248" lat="44.932269">
        <time>2025-04-17T07:24:35Z</time>
      </trkpt>
      <trkpt lon="10.913462" lat="44.932316">
        <time>2025-04-17T07:24:42Z</time>
      </trkpt>
      <trkpt lon="10.913522" lat="44.932216">
        <time>2025-04-17T07:24:47Z</time>
      </trkpt>
      <trkpt lon="10.913596" lat="44.932228">
        <time>2025-04-17T07:24:50Z</time>
      </trkpt>
      <trkpt lon="10.913626" lat="44.932233">
        <time>2025-04-17T07:24:51Z</time>
      </trkpt>
      <trkpt lon="10.913672" lat="44.932236">
        <time>2025-04-17T07:24:53Z</time>
      </trkpt>
      <trkpt lon="10.913856" lat="44.932228">
        <time>2025-04-17T07:24:59Z</time>
      </trkpt>
      <trkpt lon="10.914238" lat="44.932214">
        <time>2025-04-17T07:25:10Z</time>
      </trkpt>
      <trkpt lon="10.915212" lat="44.932176">
        <time>2025-04-17T07:25:38Z</time>
      </trkpt>
    </trkseg>
  </trk>
</gpx>
