<?xml version="1.0"?>
<gpx version="1.1" creator="YourName">
  <wpt lat="44.958648" lon="10.947206">
    <time>2025-04-17T06:49:05Z</time>
  </wpt>
  <wpt lat="44.958576" lon="10.947332">
    <time>2025-04-17T06:49:10Z</time>
  </wpt>
  <wpt lat="44.958503" lon="10.947376">
    <time>2025-04-17T06:49:14Z</time>
  </wpt>
  <wpt lat="44.958554" lon="10.947518">
    <time>2025-04-17T06:49:19Z</time>
  </wpt>
  <wpt lat="44.958484" lon="10.947588">
    <time>2025-04-17T06:49:23Z</time>
  </wpt>
  <wpt lat="44.958319" lon="10.947768">
    <time>2025-04-17T06:49:32Z</time>
  </wpt>
  <wpt lat="44.958115" lon="10.94801">
    <time>2025-04-17T06:49:43Z</time>
  </wpt>
  <wpt lat="44.958068" lon="10.948076">
    <time>2025-04-17T06:49:46Z</time>
  </wpt>
  <wpt lat="44.958013" lon="10.948216">
    <time>2025-04-17T06:49:51Z</time>
  </wpt>
  <wpt lat="44.957989" lon="10.948328">
    <time>2025-04-17T06:49:55Z</time>
  </wpt>
  <wpt lat="44.957871" lon="10.948662">
    <time>2025-04-17T06:50:06Z</time>
  </wpt>
  <wpt lat="44.957835" lon="10.9487">
    <time>2025-04-17T06:50:08Z</time>
  </wpt>
  <wpt lat="44.957802" lon="10.948724">
    <time>2025-04-17T06:50:10Z</time>
  </wpt>
  <wpt lat="44.957749" lon="10.948738">
    <time>2025-04-17T06:50:13Z</time>
  </wpt>
  <wpt lat="44.957605" lon="10.94869">
    <time>2025-04-17T06:50:19Z</time>
  </wpt>
  <wpt lat="44.957574" lon="10.948678">
    <time>2025-04-17T06:50:21Z</time>
  </wpt>
  <wpt lat="44.957489" lon="10.948588">
    <time>2025-04-17T06:50:26Z</time>
  </wpt>
  <wpt lat="44.957469" lon="10.948558">
    <time>2025-04-17T06:50:28Z</time>
  </wpt>
  <wpt lat="44.957406" lon="10.948522">
    <time>2025-04-17T06:50:31Z</time>
  </wpt>
  <wpt lat="44.957218" lon="10.948516">
    <time>2025-04-17T06:50:39Z</time>
  </wpt>
  <wpt lat="44.957108" lon="10.948536">
    <time>2025-04-17T06:50:44Z</time>
  </wpt>
  <wpt lat="44.956974" lon="10.948578">
    <time>2025-04-17T06:50:50Z</time>
  </wpt>
  <wpt lat="44.956742" lon="10.948654">
    <time>2025-04-17T06:51:00Z</time>
  </wpt>
  <wpt lat="44.956292" lon="10.948774">
    <time>2025-04-17T06:51:19Z</time>
  </wpt>
  <wpt lat="44.955883" lon="10.948846">
    <time>2025-04-17T06:51:36Z</time>
  </wpt>
  <wpt lat="44.955742" lon="10.948854">
    <time>2025-04-17T06:51:42Z</time>
  </wpt>
  <wpt lat="44.955569" lon="10.948858">
    <time>2025-04-17T06:51:49Z</time>
  </wpt>
  <wpt lat="44.954849" lon="10.948828">
    <time>2025-04-17T06:52:18Z</time>
  </wpt>
  <wpt lat="44.954288" lon="10.948806">
    <time>2025-04-17T06:52:41Z</time>
  </wpt>
  <wpt lat="44.953846" lon="10.948762">
    <time>2025-04-17T06:52:59Z</time>
  </wpt>
  <wpt lat="44.953675" lon="10.94871">
    <time>2025-04-17T06:53:07Z</time>
  </wpt>
  <wpt lat="44.953474" lon="10.948628">
    <time>2025-04-17T06:53:16Z</time>
  </wpt>
  <wpt lat="44.953061" lon="10.948372">
    <time>2025-04-17T06:53:35Z</time>
  </wpt>
  <wpt lat="44.952459" lon="10.948018">
    <time>2025-04-17T06:54:02Z</time>
  </wpt>
  <wpt lat="44.952218" lon="10.947896">
    <time>2025-04-17T06:54:13Z</time>
  </wpt>
  <wpt lat="44.951983" lon="10.947836">
    <time>2025-04-17T06:54:23Z</time>
  </wpt>
  <wpt lat="44.951634" lon="10.947808">
    <time>2025-04-17T06:54:37Z</time>
  </wpt>
  <wpt lat="44.951272" lon="10.947804">
    <time>2025-04-17T06:54:52Z</time>
  </wpt>
  <wpt lat="44.951031" lon="10.947812">
    <time>2025-04-17T06:55:02Z</time>
  </wpt>
  <wpt lat="44.950712" lon="10.947874">
    <time>2025-04-17T06:55:15Z</time>
  </wpt>
  <wpt lat="44.950696" lon="10.947882">
    <time>2025-04-17T06:55:16Z</time>
  </wpt>
  <wpt lat="44.950552" lon="10.947914">
    <time>2025-04-17T06:55:22Z</time>
  </wpt>
  <wpt lat="44.950069" lon="10.948098">
    <time>2025-04-17T06:55:43Z</time>
  </wpt>
  <wpt lat="44.950044" lon="10.948098">
    <time>2025-04-17T06:55:45Z</time>
  </wpt>
  <wpt lat="44.949804" lon="10.948168">
    <time>2025-04-17T06:55:55Z</time>
  </wpt>
  <wpt lat="44.949534" lon="10.948218">
    <time>2025-04-17T06:56:06Z</time>
  </wpt>
  <wpt lat="44.949373" lon="10.948226">
    <time>2025-04-17T06:56:13Z</time>
  </wpt>
  <wpt lat="44.949212" lon="10.948204">
    <time>2025-04-17T06:56:20Z</time>
  </wpt>
  <wpt lat="44.949004" lon="10.948158">
    <time>2025-04-17T06:56:29Z</time>
  </wpt>
  <wpt lat="44.948738" lon="10.948056">
    <time>2025-04-17T06:56:41Z</time>
  </wpt>
  <wpt lat="44.948616" lon="10.948012">
    <time>2025-04-17T06:56:47Z</time>
  </wpt>
  <wpt lat="44.948431" lon="10.947982">
    <time>2025-04-17T06:56:55Z</time>
  </wpt>
  <wpt lat="44.948306" lon="10.947972">
    <time>2025-04-17T06:57:01Z</time>
  </wpt>
  <wpt lat="44.948202" lon="10.947984">
    <time>2025-04-17T06:57:06Z</time>
  </wpt>
  <wpt lat="44.947847" lon="10.948054">
    <time>2025-04-17T06:57:21Z</time>
  </wpt>
  <wpt lat="44.947818" lon="10.948066">
    <time>2025-04-17T06:57:23Z</time>
  </wpt>
  <wpt lat="44.947606" lon="10.948122">
    <time>2025-04-17T06:57:32Z</time>
  </wpt>
  <wpt lat="44.947451" lon="10.948182">
    <time>2025-04-17T06:57:39Z</time>
  </wpt>
  <wpt lat="44.947231" lon="10.948292">
    <time>2025-04-17T06:57:49Z</time>
  </wpt>
  <wpt lat="44.946991" lon="10.948392">
    <time>2025-04-17T06:58:00Z</time>
  </wpt>
  <wpt lat="44.946856" lon="10.948432">
    <time>2025-04-17T06:58:06Z</time>
  </wpt>
  <wpt lat="44.946695" lon="10.94844">
    <time>2025-04-17T06:58:13Z</time>
  </wpt>
  <wpt lat="44.946531" lon="10.948412">
    <time>2025-04-17T06:58:20Z</time>
  </wpt>
  <wpt lat="44.946255" lon="10.94831">
    <time>2025-04-17T06:58:32Z</time>
  </wpt>
  <wpt lat="44.946101" lon="10.948232">
    <time>2025-04-17T06:58:39Z</time>
  </wpt>
  <wpt lat="44.946042" lon="10.948194">
    <time>2025-04-17T06:58:42Z</time>
  </wpt>
  <wpt lat="44.945953" lon="10.948136">
    <time>2025-04-17T06:58:46Z</time>
  </wpt>
  <wpt lat="44.945825" lon="10.94802">
    <time>2025-04-17T06:58:53Z</time>
  </wpt>
  <wpt lat="44.945672" lon="10.947854">
    <time>2025-04-17T06:59:01Z</time>
  </wpt>
  <wpt lat="44.945515" lon="10.94764">
    <time>2025-04-17T06:59:10Z</time>
  </wpt>
  <wpt lat="44.945415" lon="10.94752">
    <time>2025-04-17T06:59:16Z</time>
  </wpt>
  <wpt lat="44.945206" lon="10.947272">
    <time>2025-04-17T06:59:27Z</time>
  </wpt>
  <wpt lat="44.945084" lon="10.947098">
    <time>2025-04-17T06:59:34Z</time>
  </wpt>
  <wpt lat="44.944921" lon="10.946812">
    <time>2025-04-17T06:59:45Z</time>
  </wpt>
  <wpt lat="44.944754" lon="10.946498">
    <time>2025-04-17T06:59:57Z</time>
  </wpt>
  <wpt lat="44.944681" lon="10.946382">
    <time>2025-04-17T07:00:02Z</time>
  </wpt>
  <wpt lat="44.944493" lon="10.946106">
    <time>2025-04-17T07:00:13Z</time>
  </wpt>
  <wpt lat="44.944058" lon="10.945506">
    <time>2025-04-17T07:00:38Z</time>
  </wpt>
  <wpt lat="44.943944" lon="10.945318">
    <time>2025-04-17T07:00:46Z</time>
  </wpt>
  <wpt lat="44.943928" lon="10.945276">
    <time>2025-04-17T07:00:48Z</time>
  </wpt>
  <wpt lat="44.943846" lon="10.945102">
    <time>2025-04-17T07:00:54Z</time>
  </wpt>
  <wpt lat="44.943502" lon="10.944414">
    <time>2025-04-17T07:01:18Z</time>
  </wpt>
  <wpt lat="44.943431" lon="10.944252">
    <time>2025-04-17T07:01:24Z</time>
  </wpt>
  <wpt lat="44.943359" lon="10.944138">
    <time>2025-04-17T07:01:29Z</time>
  </wpt>
  <wpt lat="44.943208" lon="10.943976">
    <time>2025-04-17T07:01:37Z</time>
  </wpt>
  <wpt lat="44.943071" lon="10.943842">
    <time>2025-04-17T07:01:44Z</time>
  </wpt>
  <wpt lat="44.942902" lon="10.943694">
    <time>2025-04-17T07:01:52Z</time>
  </wpt>
  <wpt lat="44.942775" lon="10.94359">
    <time>2025-04-17T07:01:58Z</time>
  </wpt>
  <wpt lat="44.942634" lon="10.943518">
    <time>2025-04-17T07:02:05Z</time>
  </wpt>
  <wpt lat="44.942527" lon="10.943464">
    <time>2025-04-17T07:02:10Z</time>
  </wpt>
  <wpt lat="44.942456" lon="10.943432">
    <time>2025-04-17T07:02:13Z</time>
  </wpt>
  <wpt lat="44.942307" lon="10.943374">
    <time>2025-04-17T07:02:20Z</time>
  </wpt>
  <wpt lat="44.942076" lon="10.943242">
    <time>2025-04-17T07:02:30Z</time>
  </wpt>
  <wpt lat="44.941932" lon="10.943094">
    <time>2025-04-17T07:02:38Z</time>
  </wpt>
  <wpt lat="44.941867" lon="10.943004">
    <time>2025-04-17T07:02:42Z</time>
  </wpt>
  <wpt lat="44.941809" lon="10.942958">
    <time>2025-04-17T07:02:45Z</time>
  </wpt>
  <wpt lat="44.941753" lon="10.942956">
    <time>2025-04-17T07:02:48Z</time>
  </wpt>
  <wpt lat="44.941736" lon="10.942962">
    <time>2025-04-17T07:02:49Z</time>
  </wpt>
  <wpt lat="44.941676" lon="10.943002">
    <time>2025-04-17T07:02:52Z</time>
  </wpt>
  <wpt lat="44.940737" lon="10.944054">
    <time>2025-04-17T07:03:40Z</time>
  </wpt>
  <wpt lat="44.940725" lon="10.94403">
    <time>2025-04-17T07:03:41Z</time>
  </wpt>
  <wpt lat="44.940686" lon="10.943972">
    <time>2025-04-17T07:03:44Z</time>
  </wpt>
  <wpt lat="44.940525" lon="10.94368">
    <time>2025-04-17T07:03:55Z</time>
  </wpt>
  <wpt lat="44.940469" lon="10.943588">
    <time>2025-04-17T07:03:59Z</time>
  </wpt>
  <wpt lat="44.939736" lon="10.942292">
    <time>2025-04-17T07:04:47Z</time>
  </wpt>
  <wpt lat="44.939485" lon="10.94191">
    <time>2025-04-17T07:05:02Z</time>
  </wpt>
  <wpt lat="44.938683" lon="10.940756">
    <time>2025-04-17T07:05:48Z</time>
  </wpt>
  <wpt lat="44.938341" lon="10.940252">
    <time>2025-04-17T07:06:08Z</time>
  </wpt>
  <wpt lat="44.937698" lon="10.939326">
    <time>2025-04-17T07:06:45Z</time>
  </wpt>
  <wpt lat="44.937635" lon="10.93922">
    <time>2025-04-17T07:06:49Z</time>
  </wpt>
  <wpt lat="44.937012" lon="10.938294">
    <time>2025-04-17T07:07:26Z</time>
  </wpt>
  <wpt lat="44.936964" lon="10.938218">
    <time>2025-04-17T07:07:29Z</time>
  </wpt>
  <wpt lat="44.936891" lon="10.938082">
    <time>2025-04-17T07:07:34Z</time>
  </wpt>
  <wpt lat="44.936862" lon="10.937944">
    <time>2025-04-17T07:07:39Z</time>
  </wpt>
  <wpt lat="44.936862" lon="10.937914">
    <time>2025-04-17T07:07:40Z</time>
  </wpt>
  <wpt lat="44.936862" lon="10.937894">
    <time>2025-04-17T07:07:41Z</time>
  </wpt>
  <wpt lat="44.936857" lon="10.937784">
    <time>2025-04-17T07:07:45Z</time>
  </wpt>
  <wpt lat="44.936906" lon="10.935972">
    <time>2025-04-17T07:08:37Z</time>
  </wpt>
  <wpt lat="44.936921" lon="10.935782">
    <time>2025-04-17T07:08:43Z</time>
  </wpt>
  <wpt lat="44.936993" lon="10.935286">
    <time>2025-04-17T07:08:58Z</time>
  </wpt>
  <wpt lat="44.937002" lon="10.935124">
    <time>2025-04-17T07:09:03Z</time>
  </wpt>
  <wpt lat="44.936996" lon="10.934982">
    <time>2025-04-17T07:09:08Z</time>
  </wpt>
  <wpt lat="44.936977" lon="10.934884">
    <time>2025-04-17T07:09:11Z</time>
  </wpt>
  <wpt lat="44.936959" lon="10.934788">
    <time>2025-04-17T07:09:14Z</time>
  </wpt>
  <wpt lat="44.936906" lon="10.934602">
    <time>2025-04-17T07:09:20Z</time>
  </wpt>
  <wpt lat="44.936817" lon="10.934374">
    <time>2025-04-17T07:09:28Z</time>
  </wpt>
  <wpt lat="44.936106" lon="10.932682">
    <time>2025-04-17T07:10:24Z</time>
  </wpt>
  <wpt lat="44.935698" lon="10.931716">
    <time>2025-04-17T07:10:56Z</time>
  </wpt>
  <wpt lat="44.935269" lon="10.930738">
    <time>2025-04-17T07:11:29Z</time>
  </wpt>
  <wpt lat="44.935254" lon="10.930758">
    <time>2025-04-17T07:11:30Z</time>
  </wpt>
  <wpt lat="44.935269" lon="10.930738">
    <time>2025-04-17T07:11:31Z</time>
  </wpt>
  <wpt lat="44.935067" lon="10.930274">
    <time>2025-04-17T07:11:47Z</time>
  </wpt>
  <wpt lat="44.934862" lon="10.929814">
    <time>2025-04-17T07:12:03Z</time>
  </wpt>
  <wpt lat="44.934812" lon="10.929704">
    <time>2025-04-17T07:12:07Z</time>
  </wpt>
  <wpt lat="44.934206" lon="10.928372">
    <time>2025-04-17T07:12:52Z</time>
  </wpt>
  <wpt lat="44.933784" lon="10.927418">
    <time>2025-04-17T07:13:24Z</time>
  </wpt>
  <wpt lat="44.933708" lon="10.927226">
    <time>2025-04-17T07:13:31Z</time>
  </wpt>
  <wpt lat="44.933583" lon="10.926926">
    <time>2025-04-17T07:13:41Z</time>
  </wpt>
  <wpt lat="44.933454" lon="10.926578">
    <time>2025-04-17T07:13:53Z</time>
  </wpt>
  <wpt lat="44.933342" lon="10.926224">
    <time>2025-04-17T07:14:04Z</time>
  </wpt>
  <wpt lat="44.933281" lon="10.926042">
    <time>2025-04-17T07:14:10Z</time>
  </wpt>
  <wpt lat="44.933159" lon="10.925618">
    <time>2025-04-17T07:14:23Z</time>
  </wpt>
  <wpt lat="44.932856" lon="10.924472">
    <time>2025-04-17T07:14:58Z</time>
  </wpt>
  <wpt lat="44.932784" lon="10.924208">
    <time>2025-04-17T07:15:07Z</time>
  </wpt>
  <wpt lat="44.932708" lon="10.923996">
    <time>2025-04-17T07:15:14Z</time>
  </wpt>
  <wpt lat="44.932692" lon="10.923954">
    <time>2025-04-17T07:15:16Z</time>
  </wpt>
  <wpt lat="44.932659" lon="10.923868">
    <time>2025-04-17T07:15:19Z</time>
  </wpt>
  <wpt lat="44.932387" lon="10.923344">
    <time>2025-04-17T07:15:38Z</time>
  </wpt>
  <wpt lat="44.931561" lon="10.921692">
    <time>2025-04-17T07:16:36Z</time>
  </wpt>
  <wpt lat="44.931367" lon="10.921274">
    <time>2025-04-17T07:16:51Z</time>
  </wpt>
  <wpt lat="44.931284" lon="10.921048">
    <time>2025-04-17T07:16:59Z</time>
  </wpt>
  <wpt lat="44.931237" lon="10.920864">
    <time>2025-04-17T07:17:05Z</time>
  </wpt>
  <wpt lat="44.931215" lon="10.92069">
    <time>2025-04-17T07:17:11Z</time>
  </wpt>
  <wpt lat="44.931208" lon="10.920446">
    <time>2025-04-17T07:17:18Z</time>
  </wpt>
  <wpt lat="44.931199" lon="10.920428">
    <time>2025-04-17T07:17:19Z</time>
  </wpt>
  <wpt lat="44.931088" lon="10.918376">
    <time>2025-04-17T07:18:18Z</time>
  </wpt>
  <wpt lat="44.931066" lon="10.918192">
    <time>2025-04-17T07:18:24Z</time>
  </wpt>
  <wpt lat="44.931035" lon="10.91809">
    <time>2025-04-17T07:18:28Z</time>
  </wpt>
  <wpt lat="44.931039" lon="10.918078">
    <time>2025-04-17T07:18:29Z</time>
  </wpt>
  <wpt lat="44.930945" lon="10.91794">
    <time>2025-04-17T07:18:35Z</time>
  </wpt>
  <wpt lat="44.930866" lon="10.917862">
    <time>2025-04-17T07:18:39Z</time>
  </wpt>
  <wpt lat="44.930574" lon="10.917658">
    <time>2025-04-17T07:18:53Z</time>
  </wpt>
  <wpt lat="44.930278" lon="10.917386">
    <time>2025-04-17T07:19:08Z</time>
  </wpt>
  <wpt lat="44.930112" lon="10.917244">
    <time>2025-04-17T07:19:16Z</time>
  </wpt>
  <wpt lat="44.929979" lon="10.917088">
    <time>2025-04-17T07:19:23Z</time>
  </wpt>
  <wpt lat="44.929923" lon="10.917016">
    <time>2025-04-17T07:19:27Z</time>
  </wpt>
  <wpt lat="44.929652" lon="10.916644">
    <time>2025-04-17T07:19:43Z</time>
  </wpt>
  <wpt lat="44.929439" lon="10.916288">
    <time>2025-04-17T07:19:57Z</time>
  </wpt>
  <wpt lat="44.929354" lon="10.916138">
    <time>2025-04-17T07:20:03Z</time>
  </wpt>
  <wpt lat="44.929215" lon="10.91581">
    <time>2025-04-17T07:20:14Z</time>
  </wpt>
  <wpt lat="44.929189" lon="10.915548">
    <time>2025-04-17T07:20:22Z</time>
  </wpt>
  <wpt lat="44.929173" lon="10.915556">
    <time>2025-04-17T07:20:23Z</time>
  </wpt>
  <wpt lat="44.929189" lon="10.915548">
    <time>2025-04-17T07:20:24Z</time>
  </wpt>
  <wpt lat="44.929264" lon="10.915498">
    <time>2025-04-17T07:20:28Z</time>
  </wpt>
  <wpt lat="44.929553" lon="10.915306">
    <time>2025-04-17T07:20:41Z</time>
  </wpt>
  <wpt lat="44.929653" lon="10.915226">
    <time>2025-04-17T07:20:46Z</time>
  </wpt>
  <wpt lat="44.929638" lon="10.915186">
    <time>2025-04-17T07:20:48Z</time>
  </wpt>
  <wpt lat="44.929136" lon="10.913792">
    <time>2025-04-17T07:21:33Z</time>
  </wpt>
  <wpt lat="44.929125" lon="10.91376">
    <time>2025-04-17T07:21:35Z</time>
  </wpt>
  <wpt lat="44.929433" lon="10.913536">
    <time>2025-04-17T07:21:49Z</time>
  </wpt>
  <wpt lat="44.929458" lon="10.913526">
    <time>2025-04-17T07:21:51Z</time>
  </wpt>
  <wpt lat="44.929524" lon="10.913668">
    <time>2025-04-17T07:21:56Z</time>
  </wpt>
  <wpt lat="44.929543" lon="10.913696">
    <time>2025-04-17T07:21:58Z</time>
  </wpt>
  <wpt lat="44.929716" lon="10.913772">
    <time>2025-04-17T07:22:06Z</time>
  </wpt>
  <wpt lat="44.929913" lon="10.913876">
    <time>2025-04-17T07:22:15Z</time>
  </wpt>
  <wpt lat="44.930026" lon="10.913922">
    <time>2025-04-17T07:22:20Z</time>
  </wpt>
  <wpt lat="44.930083" lon="10.913946">
    <time>2025-04-17T07:22:23Z</time>
  </wpt>
  <wpt lat="44.930108" lon="10.913946">
    <time>2025-04-17T07:22:25Z</time>
  </wpt>
  <wpt lat="44.930136" lon="10.913922">
    <time>2025-04-17T07:22:27Z</time>
  </wpt>
  <wpt lat="44.930138" lon="10.913926">
    <time>2025-04-17T07:22:28Z</time>
  </wpt>
  <wpt lat="44.930161" lon="10.913902">
    <time>2025-04-17T07:22:30Z</time>
  </wpt>
  <wpt lat="44.930415" lon="10.91349">
    <time>2025-04-17T07:22:46Z</time>
  </wpt>
  <wpt lat="44.930478" lon="10.913376">
    <time>2025-04-17T07:22:51Z</time>
  </wpt>
  <wpt lat="44.930539" lon="10.913268">
    <time>2025-04-17T07:22:55Z</time>
  </wpt>
  <wpt lat="44.930765" lon="10.91284">
    <time>2025-04-17T07:23:11Z</time>
  </wpt>
  <wpt lat="44.930803" lon="10.912776">
    <time>2025-04-17T07:23:14Z</time>
  </wpt>
  <wpt lat="44.930862" lon="10.912634">
    <time>2025-04-17T07:23:19Z</time>
  </wpt>
  <wpt lat="44.930877" lon="10.912644">
    <time>2025-04-17T07:23:20Z</time>
  </wpt>
  <wpt lat="44.930923" lon="10.912676">
    <time>2025-04-17T07:23:23Z</time>
  </wpt>
  <wpt lat="44.931059" lon="10.912758">
    <time>2025-04-17T07:23:29Z</time>
  </wpt>
  <wpt lat="44.931784" lon="10.913168">
    <time>2025-04-17T07:24:01Z</time>
  </wpt>
  <wpt lat="44.931831" lon="10.913202">
    <time>2025-04-17T07:24:04Z</time>
  </wpt>
  <wpt lat="44.931832" lon="10.913214">
    <time>2025-04-17T07:24:05Z</time>
  </wpt>
  <wpt lat="44.931883" lon="10.913316">
    <time>2025-04-17T07:24:09Z</time>
  </wpt>
  <wpt lat="44.931942" lon="10.913354">
    <time>2025-04-17T07:24:12Z</time>
  </wpt>
  <wpt lat="44.931989" lon="10.913368">
    <time>2025-04-17T07:24:14Z</time>
  </wpt>
  <wpt lat="44.932019" lon="10.913378">
    <time>2025-04-17T07:24:16Z</time>
  </wpt>
  <wpt lat="44.932068" lon="10.913356">
    <time>2025-04-17T07:24:19Z</time>
  </wpt>
  <wpt lat="44.932126" lon="10.913322">
    <time>2025-04-17T07:24:22Z</time>
  </wpt>
  <wpt lat="44.932142" lon="10.913314">
    <time>2025-04-17T07:24:23Z</time>
  </wpt>
  <wpt lat="44.932169" lon="10.913328">
    <time>2025-04-17T07:24:25Z</time>
  </wpt>
  <wpt lat="44.932186" lon="10.913332">
    <time>2025-04-17T07:24:26Z</time>
  </wpt>
  <wpt lat="44.932207" lon="10.913384">
    <time>2025-04-17T07:24:28Z</time>
  </wpt>
  <wpt lat="44.932211" lon="10.913362">
    <time>2025-04-17T07:24:29Z</time>
  </wpt>
  <wpt lat="44.932221" lon="10.913302">
    <time>2025-04-17T07:24:31Z</time>
  </wpt>
  <wpt lat="44.932234" lon="10.913268">
    <time>2025-04-17T07:24:33Z</time>
  </wpt>
  <wpt lat="44.932269" lon="10.913248">
    <time>2025-04-17T07:24:35Z</time>
  </wpt>
  <wpt lat="44.932316" lon="10.913462">
    <time>2025-04-17T07:24:42Z</time>
  </wpt>
  <wpt lat="44.932216" lon="10.913522">
    <time>2025-04-17T07:24:47Z</time>
  </wpt>
  <wpt lat="44.932228" lon="10.913596">
    <time>2025-04-17T07:24:50Z</time>
  </wpt>
  <wpt lat="44.932233" lon="10.913626">
    <time>2025-04-17T07:24:51Z</time>
  </wpt>
  <wpt lat="44.932236" lon="10.913672">
    <time>2025-04-17T07:24:53Z</time>
  </wpt>
  <wpt lat="44.932228" lon="10.913856">
    <time>2025-04-17T07:24:59Z</time>
  </wpt>
  <wpt lat="44.932214" lon="10.914238">
    <time>2025-04-17T07:25:10Z</time>
  </wpt>
  <wpt lat="44.932176" lon="10.915212">
    <time>2025-04-17T07:25:38Z</time>
  </wpt>
</gpx>